{
  "norad_id": 63791,
  "name": "STARLINK-33935",
  "history": [
    {
      "epoch": "2026-03-28T21:09:50.505120",
      "apogee_km": 483.31399479460197,
      "perigee_km": 482.61896501208776,
      "latitude_deg": 3.834231545100206,
      "longitude_deg": -76.24388319975697,
      "semi_major_axis_km": 6861.103479903345,
      "eccentricity": 5.065e-05,
      "inclination_deg": 42.9995,
      "raan_deg": 304.4675,
      "arg_perigee_deg": 244.3318,
      "mean_anomaly_deg": 115.7481,
      "mean_motion_rev_day": 15.27607591
    }
  ]
}